{
  "norad_id": 63228,
  "name": "TRANSPORTER-13 OBJECT U",
  "history": [
    {
      "epoch": "2026-03-28T16:25:14.592288Z",
      "apogee_km": 502.56108184446566,
      "perigee_km": 493.07597623037964,
      "latitude_deg": -3.658132528595075e-05,
      "longitude_deg": -90.76660732679944,
      "height_km": 499.8352024858687,
      "semi_major_axis_km": 6875.955529037423,
      "eccentricity": 0.00068973,
      "inclination_deg": 97.4019,
      "raan_deg": 341.6453,
      "arg_perigee_deg": 77.0342,
      "mean_anomaly_deg": 283.1664,
      "mean_motion_rev_day": 15.22660821
    },
    {
      "epoch": "2026-03-29T03:27:39.859776Z",
      "apogee_km": 502.5474540294899,
      "perigee_km": 493.0297977781147,
      "latitude_deg": 1.6561675946820075e-05,
      "longitude_deg": 103.62779340890303,
      "height_km": 499.72249503636215,
      "semi_major_axis_km": 6875.925625903802,
      "eccentricity": 0.0006921,
      "inclination_deg": 97.402,
      "raan_deg": 342.0984,
      "arg_perigee_deg": 76.0544,
      "mean_anomaly_deg": 284.1462,
      "mean_motion_rev_day": 15.22670754
    },
    {
      "epoch": "2026-03-30T04:41:45.375648Z",
      "apogee_km": 502.44482943969524,
      "perigee_km": 493.0235107624221,
      "latitude_deg": -3.050121844994456e-05,
      "longitude_deg": 85.10415824885366,
      "height_km": 499.46732991687634,
      "semi_major_axis_km": 6875.871170101058,
      "eccentricity": 0.0006851,
      "inclination_deg": 97.4022,
      "raan_deg": 343.1341,
      "arg_perigee_deg": 73.3726,
      "mean_anomaly_deg": 286.8262,
      "mean_motion_rev_day": 15.22688843
    },
    {
      "epoch": "2026-03-30T06:16:23.184480Z",
      "apogee_km": 502.4397274709472,
      "perigee_km": 493.0218513597847,
      "latitude_deg": 6.434784495017802e-05,
      "longitude_deg": 61.44653723611116,
      "height_km": 499.4510116279118,
      "semi_major_axis_km": 6875.867789415365,
      "eccentricity": 0.00068485,
      "inclination_deg": 97.4022,
      "raan_deg": 343.1988,
      "arg_perigee_deg": 73.202,
      "mean_anomaly_deg": 286.9968,
      "mean_motion_rev_day": 15.22689966
    },
    {
      "epoch": "2026-03-30T14:09:32.139648Z",
      "apogee_km": 502.4143571688646,
      "perigee_km": 493.00764703414825,
      "latitude_deg": -5.399038924745186e-05,
      "longitude_deg": -56.84101945054767,
      "height_km": 499.3763554077952,
      "semi_major_axis_km": 6875.848002101506,
      "eccentricity": 0.00068404,
      "inclination_deg": 97.4022,
      "raan_deg": 343.5224,
      "arg_perigee_deg": 72.4806,
      "mean_anomaly_deg": 287.7177,
      "mean_motion_rev_day": 15.22696539
    },
    {
      "epoch": "2026-03-30T22:02:40.983360Z",
      "apogee_km": 502.39870689003783,
      "perigee_km": 492.98555929025497,
      "latitude_deg": 4.341405576181469e-05,
      "longitude_deg": -175.1279383396932,
      "height_km": 499.2921925190382,
      "semi_major_axis_km": 6875.829133090147,
      "eccentricity": 0.00068451,
      "inclination_deg": 97.4022,
      "raan_deg": 343.8462,
      "arg_perigee_deg": 71.6571,
      "mean_anomaly_deg": 288.541,
      "mean_motion_rev_day": 15.22702807
    },
    {
      "epoch": "2026-03-31T20:07:29.168256Z",
      "apogee_km": 502.3449120623118,
      "perigee_km": 492.94296920409033,
      "latitude_deg": -1.063984398014065e-05,
      "longitude_deg": -146.32899597239253,
      "height_km": 499.05181842587467,
      "semi_major_axis_km": 6875.780940633201,
      "eccentricity": 0.0006837,
      "inclination_deg": 97.4019,
      "raan_deg": 344.7527,
      "arg_perigee_deg": 69.1444,
      "mean_anomaly_deg": 291.0524,
      "mean_motion_rev_day": 15.22718816
    },
    {
      "epoch": "2026-04-01T19:46:54.164928Z",
      "apogee_km": 502.2605525386962,
      "perigee_km": 492.9384290045091,
      "latitude_deg": 2.2716074798560023e-05,
      "longitude_deg": -141.1837079863308,
      "height_km": 498.8290773944129,
      "semi_major_axis_km": 6875.736490771603,
      "eccentricity": 0.0006779,
      "inclination_deg": 97.4016,
      "raan_deg": 345.7237,
      "arg_perigee_deg": 66.5846,
      "mean_anomaly_deg": 293.6103,
      "mean_motion_rev_day": 15.22733582
    },
    {
      "epoch": "2026-04-02T19:26:18.161952Z",
      "apogee_km": 502.1555050920633,
      "perigee_km": 492.8994855484634,
      "latitude_deg": -2.2083838325526675e-05,
      "longitude_deg": -136.0343337602995,
      "height_km": 498.59424377917566,
      "semi_major_axis_km": 6875.664495320263,
      "eccentricity": 0.0006731,
      "inclination_deg": 97.4012,
      "raan_deg": 346.6946,
      "arg_perigee_deg": 64.1827,
      "mean_anomaly_deg": 296.0103,
      "mean_motion_rev_day": 15.22757499
    },
    {
      "epoch": "2026-04-02T22:35:33.288000Z",
      "apogee_km": 502.13827558726825,
      "perigee_km": 492.9060530010038,
      "latitude_deg": -2.8519137884055118e-05,
      "longitude_deg": 176.65260350269202,
      "height_km": 498.5677741399109,
      "semi_major_axis_km": 6875.659164294136,
      "eccentricity": 0.00067137,
      "inclination_deg": 97.4011,
      "raan_deg": 346.8241,
      "arg_perigee_deg": 63.8181,
      "mean_anomaly_deg": 296.3745,
      "mean_motion_rev_day": 15.2275927
    },
    {
      "epoch": "2026-04-03T20:40:18.335712Z",
      "apogee_km": 502.00557247817596,
      "perigee_km": 492.90091587683673,
      "latitude_deg": 6.540245737487453e-05,
      "longitude_deg": -154.53566715236693,
      "height_km": 498.34980395896133,
      "semi_major_axis_km": 6875.590244177506,
      "eccentricity": 0.0006621,
      "inclination_deg": 97.4006,
      "raan_deg": 347.7303,
      "arg_perigee_deg": 61.298,
      "mean_anomaly_deg": 298.8922,
      "mean_motion_rev_day": 15.22782166
    },
    {
      "epoch": "2026-04-04T15:35:47.467680Z",
      "apogee_km": 501.93438231600794,
      "perigee_km": 492.87104586489386,
      "latitude_deg": -4.788891179582059e-06,
      "longitude_deg": -78.40735414389515,
      "height_km": 498.1601968551148,
      "semi_major_axis_km": 6875.539714090451,
      "eccentricity": 0.0006591,
      "inclination_deg": 97.4004,
      "raan_deg": 348.5072,
      "arg_perigee_deg": 59.122,
      "mean_anomaly_deg": 301.0664,
      "mean_motion_rev_day": 15.22798953
    },
    {
      "epoch": "2026-04-05T05:47:23.864352Z",
      "apogee_km": 501.89087863670375,
      "perigee_km": 492.8550834196367,
      "latitude_deg": -7.289056200898798e-06,
      "longitude_deg": 68.69058860135164,
      "height_km": 498.0403687803689,
      "semi_major_axis_km": 6875.50998102817,
      "eccentricity": 0.0006571,
      "inclination_deg": 97.4002,
      "raan_deg": 349.0897,
      "arg_perigee_deg": 57.6717,
      "mean_anomaly_deg": 302.5155,
      "mean_motion_rev_day": 15.22808831
    },
    {
      "epoch": "2026-04-05T16:49:45.257664Z",
      "apogee_km": 501.8464192259662,
      "perigee_km": 492.8505340283473,
      "latitude_deg": 2.4056788572313312e-05,
      "longitude_deg": -96.89872202351994,
      "height_km": 497.93908153407483,
      "semi_major_axis_km": 6875.4854766271565,
      "eccentricity": 0.0006542,
      "inclination_deg": 97.4,
      "raan_deg": 349.5429,
      "arg_perigee_deg": 56.3399,
      "mean_anomaly_deg": 303.8461,
      "mean_motion_rev_day": 15.22816972
    },
    {
      "epoch": "2026-04-06T05:26:43.782432Z",
      "apogee_km": 501.8039686070142,
      "perigee_km": 492.8478531100718,
      "latitude_deg": -6.731498099295827e-05,
      "longitude_deg": 73.8571042207084,
      "height_km": 497.84585259520674,
      "semi_major_axis_km": 6875.462910858542,
      "eccentricity": 0.00065131,
      "inclination_deg": 97.3998,
      "raan_deg": 350.0607,
      "arg_perigee_deg": 55.0709,
      "mean_anomaly_deg": 305.1138,
      "mean_motion_rev_day": 15.22824469
    },
    {
      "epoch": "2026-04-06T22:47:33.887328Z",
      "apogee_km": 501.7316922467098,
      "perigee_km": 492.86100813829125,
      "latitude_deg": -2.8954203627767325e-05,
      "longitude_deg": 173.6478007741936,
      "height_km": 497.72064699470474,
      "semi_major_axis_km": 6875.4333501925,
      "eccentricity": 0.0006451,
      "inclination_deg": 97.3997,
      "raan_deg": 350.7726,
      "arg_perigee_deg": 53.1497,
      "mean_anomaly_deg": 307.033,
      "mean_motion_rev_day": 15.2283429
    },
    {
      "epoch": "2026-04-08T14:13:04.630944Z",
      "apogee_km": 501.5974487350686,
      "perigee_km": 492.8826333204843,
      "latitude_deg": -5.854171461176173e-05,
      "longitude_deg": -57.731534390839464,
      "height_km": 497.4579678082906,
      "semi_major_axis_km": 6875.377041027776,
      "eccentricity": 0.00063377,
      "inclination_deg": 97.3995,
      "raan_deg": 352.3905,
      "arg_perigee_deg": 48.8521,
      "mean_anomaly_deg": 311.3261,
      "mean_motion_rev_day": 15.22852998
    },
    {
      "epoch": "2026-04-09T10:43:07.902336Z",
      "apogee_km": 501.50703041523957,
      "perigee_km": 492.90858669076624,
      "latitude_deg": 8.946126489558389e-06,
      "longitude_deg": -5.245818868737247,
      "height_km": 497.3305293568988,
      "semi_major_axis_km": 6875.344808553003,
      "eccentricity": 0.00062531,
      "inclination_deg": 97.3994,
      "raan_deg": 353.2318,
      "arg_perigee_deg": 46.4355,
      "mean_anomaly_deg": 313.74,
      "mean_motion_rev_day": 15.22863707
    },
    {
      "epoch": "2026-04-10T04:03:56.412288Z",
      "apogee_km": 501.4422826622149,
      "perigee_km": 492.9155158839367,
      "latitude_deg": 1.299236497847093e-05,
      "longitude_deg": 94.55144569157189,
      "height_km": 497.21894999602455,
      "semi_major_axis_km": 6875.315899273076,
      "eccentricity": 0.0006201,
      "inclination_deg": 97.3993,
      "raan_deg": 353.9436,
      "arg_perigee_deg": 44.402,
      "mean_anomaly_deg": 315.7713,
      "mean_motion_rev_day": 15.22873312
    }
  ]
}